[{"OBJECT_NAME":"STARLINK-34469","OBJECT_ID":"2025-137X","EPOCH":"2026-03-09T22:05:41.409888","MEAN_MOTION":15.30205059,"ECCENTRICITY":0.00010363,"INCLINATION":53.1596,"RA_OF_ASC_NODE":333.9228,"ARG_OF_PERICENTER":73.1634,"MEAN_ANOMALY":286.948,"EPHEMERIS_TYPE":0,"CLASSIFICATION_TYPE":"U","NORAD_CAT_ID":64615,"ELEMENT_SET_NO":999,"REV_AT_EPOCH":4077,"BSTAR":0.00082345756,"MEAN_MOTION_DOT":0.00024112,"MEAN_MOTION_DDOT":0},{"OBJECT_NAME":"CZ-6A DEB","OBJECT_ID":"2022-151DE","EPOCH":"2026-03-09T09:45:43.657920","MEAN_MOTION":15.34292219,"ECCENTRICITY":0.00393756,"INCLINATION":99.0022,"RA_OF_ASC_NODE":218.5596,"ARG_OF_PERICENTER":192.6197,"MEAN_ANOMALY":167.4059,"EPHEMERIS_TYPE":0,"CLASSIFICATION_TYPE":"U","NORAD_CAT_ID":54359,"ELEMENT_SET_NO":999,"REV_AT_EPOCH":10560,"BSTAR":0.0065240017,"MEAN_MOTION_DOT":0.00228186,"MEAN_MOTION_DDOT":0}]
